[{"COMMENT":"GENERATED VIA SPACETRACK.ORG API","ORIGINATOR":"18 SPCS","NORAD_CAT_ID":"45120","OBJECT_NAME":"VPM","OBJECT_TYPE":"PAYLOAD","CLASSIFICATION_TYPE":"U","INTLDES":"19071K","EPOCH":"2020-04-17 21:53:47","EPOCH_MICROSECONDS":"17536","MEAN_MOTION":"15.33648821","ECCENTRICITY":"0.0011898","INCLINATION":"51.6429","RA_OF_ASC_NODE":"295.7227","ARG_OF_PERICENTER":"191.4274","MEAN_ANOMALY":"168.6439","EPHEMERIS_TYPE":"0","ELEMENT_SET_NO":"999","REV_AT_EPOCH":"1172","BSTAR":"0.00012257","MEAN_MOTION_DOT":"0.00003678","MEAN_MOTION_DDOT":"0","FILE":"2735804","TLE_LINE0":"0 VPM","TLE_LINE1":"1 45120U 19071K   20108.91234974  .00003678  00000-0  12257-3 0  9994","TLE_LINE2":"2 45120  51.6429 295.7227 0011898 191.4274 168.6439 15.33648821 11729","OBJECT_ID":"2019-071K","OBJECT_NUMBER":"45120","SEMIMAJOR_AXIS":"6843.073","PERIOD":"93.893","APOGEE":"473.080","PERIGEE":"456.796","DECAYED":"0"},{"COMMENT":"GENERATED VIA SPACETRACK.ORG API","ORIGINATOR":"18 SPCS","NORAD_CAT_ID":"45120","OBJECT_NAME":"VPM","OBJECT_TYPE":"PAYLOAD","CLASSIFICATION_TYPE":"U","INTLDES":"19071K","EPOCH":"2020-04-18 11:58:16","EPOCH_MICROSECONDS":"432320","MEAN_MOTION":"15.33652315","ECCENTRICITY":"0.0011864","INCLINATION":"51.6428","RA_OF_ASC_NODE":"292.8884","ARG_OF_PERICENTER":"193.5431","MEAN_ANOMALY":"166.5234","EPHEMERIS_TYPE":"0","ELEMENT_SET_NO":"999","REV_AT_EPOCH":"1181","BSTAR":"0.000098245","MEAN_MOTION_DOT":"0.00002872","MEAN_MOTION_DDOT":"0","FILE":"2735994","TLE_LINE0":"0 VPM","TLE_LINE1":"1 45120U 19071K   20109.49880130 +.00002872 +00000-0 +98245-4 0  9996","TLE_LINE2":"2 45120 051.6428 292.8884 0011864 193.5431 166.5234 15.33652315011819","OBJECT_ID":"2019-071K","OBJECT_NUMBER":"45120","SEMIMAJOR_AXIS":"6843.063","PERIOD":"93.893","APOGEE":"473.047","PERIGEE":"456.809","DECAYED":"0"},{"COMMENT":"GENERATED VIA SPACETRACK.ORG API","ORIGINATOR":"18 SPCS","NORAD_CAT_ID":"45120","OBJECT_NAME":"VPM","OBJECT_TYPE":"PAYLOAD","CLASSIFICATION_TYPE":"U","INTLDES":"19071K","EPOCH":"2020-04-18 18:13:36","EPOCH_MICROSECONDS":"149952","MEAN_MOTION":"15.33653783","ECCENTRICITY":"0.0011851","INCLINATION":"51.6427","RA_OF_ASC_NODE":"291.6287","ARG_OF_PERICENTER":"194.4401","MEAN_ANOMALY":"165.6244","EPHEMERIS_TYPE":"0","ELEMENT_SET_NO":"999","REV_AT_EPOCH":"1185","BSTAR":"0.000091075","MEAN_MOTION_DOT":"0.00002635","MEAN_MOTION_DDOT":"0","FILE":"2736159","TLE_LINE0":"0 VPM","TLE_LINE1":"1 45120U 19071K   20109.75944618 +.00002635 +00000-0 +91075-4 0  9998","TLE_LINE2":"2 45120 051.6427 291.6287 0011851 194.4401 165.6244 15.33653783011850","OBJECT_ID":"2019-071K","OBJECT_NUMBER":"45120","SEMIMAJOR_AXIS":"6843.059","PERIOD":"93.893","APOGEE":"473.033","PERIGEE":"456.814","DECAYED":"0"},{"COMMENT":"GENERATED VIA SPACETRACK.ORG API","ORIGINATOR":"18 SPCS","NORAD_CAT_ID":"45120","OBJECT_NAME":"VPM","OBJECT_TYPE":"PAYLOAD","CLASSIFICATION_TYPE":"U","INTLDES":"19071K","EPOCH":"2020-04-18 21:21:16","EPOCH_MICROSECONDS":"1856","MEAN_MOTION":"15.3365543","ECCENTRICITY":"0.0011838","INCLINATION":"51.6427","RA_OF_ASC_NODE":"290.9989","ARG_OF_PERICENTER":"194.8996","MEAN_ANOMALY":"165.1639","EPHEMERIS_TYPE":"0","ELEMENT_SET_NO":"999","REV_AT_EPOCH":"1187","BSTAR":"0.00010035","MEAN_MOTION_DOT":"0.00002942","MEAN_MOTION_DDOT":"0","FILE":"2736498","TLE_LINE0":"0 VPM","TLE_LINE1":"1 45120U 19071K   20109.88976854 +.00002942 +00000-0 +10035-3 0  9996","TLE_LINE2":"2 45120 051.6427 290.9989 0011838 194.8996 165.1639 15.33655430011875","OBJECT_ID":"2019-071K","OBJECT_NUMBER":"45120","SEMIMAJOR_AXIS":"6843.054","PERIOD":"93.893","APOGEE":"473.019","PERIGEE":"456.818","DECAYED":"0"},{"COMMENT":"GENERATED VIA SPACETRACK.ORG API","ORIGINATOR":"18 SPCS","NORAD_CAT_ID":"45120","OBJECT_NAME":"VPM","OBJECT_TYPE":"PAYLOAD","CLASSIFICATION_TYPE":"U","INTLDES":"19071K","EPOCH":"2020-04-19 05:10:25","EPOCH_MICROSECONDS":"591008","MEAN_MOTION":"15.33656771","ECCENTRICITY":"0.0011833","INCLINATION":"51.6426","RA_OF_ASC_NODE":"289.4242","ARG_OF_PERICENTER":"196.0768","MEAN_ANOMALY":"163.984","EPHEMERIS_TYPE":"0","ELEMENT_SET_NO":"999","REV_AT_EPOCH":"1192","BSTAR":"0.000085425","MEAN_MOTION_DOT":"0.00002448","MEAN_MOTION_DDOT":"0","FILE":"2736422","TLE_LINE0":"0 VPM","TLE_LINE1":"1 45120U 19071K   20110.21557397  .00002448  00000-0  85425-4 0  9999","TLE_LINE2":"2 45120  51.6426 289.4242 0011833 196.0768 163.9840 15.33656771 11920","OBJECT_ID":"2019-071K","OBJECT_NUMBER":"45120","SEMIMAJOR_AXIS":"6843.050","PERIOD":"93.893","APOGEE":"473.012","PERIGEE":"456.817","DECAYED":"0"},{"COMMENT":"GENERATED VIA SPACETRACK.ORG API","ORIGINATOR":"18 SPCS","NORAD_CAT_ID":"45120","OBJECT_NAME":"VPM","OBJECT_TYPE":"PAYLOAD","CLASSIFICATION_TYPE":"U","INTLDES":"19071K","EPOCH":"2020-04-19 17:41:04","EPOCH_MICROSECONDS":"847424","MEAN_MOTION":"15.3366083","ECCENTRICITY":"0.0011808","INCLINATION":"51.6425","RA_OF_ASC_NODE":"286.9048","ARG_OF_PERICENTER":"197.9554","MEAN_ANOMALY":"162.1013","EPHEMERIS_TYPE":"0","ELEMENT_SET_NO":"999","REV_AT_EPOCH":"1200","BSTAR":"0.000091125","MEAN_MOTION_DOT":"0.00002637","MEAN_MOTION_DDOT":"0","FILE":"2736606","TLE_LINE0":"0 VPM","TLE_LINE1":"1 45120U 19071K   20110.73686166 +.00002637 +00000-0 +91125-4 0  9997","TLE_LINE2":"2 45120 051.6425 286.9048 0011808 197.9554 162.1013 15.33660830012004","OBJECT_ID":"2019-071K","OBJECT_NUMBER":"45120","SEMIMAJOR_AXIS":"6843.038","PERIOD":"93.892","APOGEE":"472.983","PERIGEE":"456.822","DECAYED":"0"},{"COMMENT":"GENERATED VIA SPACETRACK.ORG API","ORIGINATOR":"18 SPCS","NORAD_CAT_ID":"45120","OBJECT_NAME":"VPM","OBJECT_TYPE":"PAYLOAD","CLASSIFICATION_TYPE":"U","INTLDES":"19071K","EPOCH":"2020-04-20 17:08:33","EPOCH_MICROSECONDS":"206208","MEAN_MOTION":"15.33668258","ECCENTRICITY":"0.0011788","INCLINATION":"51.6422","RA_OF_ASC_NODE":"282.1806","ARG_OF_PERICENTER":"201.5057","MEAN_ANOMALY":"158.5432","EPHEMERIS_TYPE":"0","ELEMENT_SET_NO":"999","REV_AT_EPOCH":"1215","BSTAR":"0.00010666","MEAN_MOTION_DOT":"0.00003152","MEAN_MOTION_DDOT":"0","FILE":"2736937","TLE_LINE0":"0 VPM","TLE_LINE1":"1 45120U 19071K   20111.71427322  .00003152  00000-0  10666-3 0  9996","TLE_LINE2":"2 45120  51.6422 282.1806 0011788 201.5057 158.5432 15.33668258 12150","OBJECT_ID":"2019-071K","OBJECT_NUMBER":"45120","SEMIMAJOR_AXIS":"6843.015","PERIOD":"93.892","APOGEE":"472.947","PERIGEE":"456.814","DECAYED":"0"},{"COMMENT":"GENERATED VIA SPACETRACK.ORG API","ORIGINATOR":"18 SPCS","NORAD_CAT_ID":"45120","OBJECT_NAME":"VPM","OBJECT_TYPE":"PAYLOAD","CLASSIFICATION_TYPE":"U","INTLDES":"19071K","EPOCH":"2020-04-21 04:05:22","EPOCH_MICROSECONDS":"311168","MEAN_MOTION":"15.33671285","ECCENTRICITY":"0.0011779","INCLINATION":"51.6421","RA_OF_ASC_NODE":"279.9761","ARG_OF_PERICENTER":"203.2168","MEAN_ANOMALY":"156.8283","EPHEMERIS_TYPE":"0","ELEMENT_SET_NO":"999","REV_AT_EPOCH":"1222","BSTAR":"0.00010719","MEAN_MOTION_DOT":"0.0000317","MEAN_MOTION_DDOT":"0","FILE":"2737156","TLE_LINE0":"0 VPM","TLE_LINE1":"1 45120U 19071K   20112.17039712 +.00003170 +00000-0 +10719-3 0  9998","TLE_LINE2":"2 45120 051.6421 279.9761 0011779 203.2168 156.8283 15.33671285012222","OBJECT_ID":"2019-071K","OBJECT_NUMBER":"45120","SEMIMAJOR_AXIS":"6843.006","PERIOD":"93.892","APOGEE":"472.932","PERIGEE":"456.811","DECAYED":"0"},{"COMMENT":"GENERATED VIA SPACETRACK.ORG API","ORIGINATOR":"18 SPCS","NORAD_CAT_ID":"45120","OBJECT_NAME":"VPM","OBJECT_TYPE":"PAYLOAD","CLASSIFICATION_TYPE":"U","INTLDES":"19071K","EPOCH":"2020-04-21 19:43:40","EPOCH_MICROSECONDS":"860480","MEAN_MOTION":"15.33677319","ECCENTRICITY":"0.0011778","INCLINATION":"51.6419","RA_OF_ASC_NODE":"276.8265","ARG_OF_PERICENTER":"205.586","MEAN_ANOMALY":"154.4541","EPHEMERIS_TYPE":"0","ELEMENT_SET_NO":"999","REV_AT_EPOCH":"1232","BSTAR":"0.00012765","MEAN_MOTION_DOT":"0.0000385","MEAN_MOTION_DDOT":"0","FILE":"2737318","TLE_LINE0":"0 VPM","TLE_LINE1":"1 45120U 19071K   20112.82200070  .00003850  00000-0  12765-3 0  9995","TLE_LINE2":"2 45120  51.6419 276.8265 0011778 205.5860 154.4541 15.33677319 12323","OBJECT_ID":"2019-071K","OBJECT_NUMBER":"45120","SEMIMAJOR_AXIS":"6842.989","PERIOD":"93.891","APOGEE":"472.913","PERIGEE":"456.794","DECAYED":"0"},{"COMMENT":"GENERATED VIA SPACETRACK.ORG API","ORIGINATOR":"18 SPCS","NORAD_CAT_ID":"45120","OBJECT_NAME":"VPM","OBJECT_TYPE":"PAYLOAD","CLASSIFICATION_TYPE":"U","INTLDES":"19071K","EPOCH":"2020-04-22 12:55:48","EPOCH_MICROSECONDS":"970272","MEAN_MOTION":"15.33684307","ECCENTRICITY":"0.0011766","INCLINATION":"51.6416","RA_OF_ASC_NODE":"273.3622","ARG_OF_PERICENTER":"208.2596","MEAN_ANOMALY":"151.7749","EPHEMERIS_TYPE":"0","ELEMENT_SET_NO":"999","REV_AT_EPOCH":"1243","BSTAR":"0.0001392","MEAN_MOTION_DOT":"0.00004234","MEAN_MOTION_DDOT":"0","FILE":"2737780","TLE_LINE0":"0 VPM","TLE_LINE1":"1 45120U 19071K   20113.53876123 +.00004234 +00000-0 +13920-3 0  9993","TLE_LINE2":"2 45120 051.6416 273.3622 0011766 208.2596 151.7749 15.33684307012439","OBJECT_ID":"2019-071K","OBJECT_NUMBER":"45120","SEMIMAJOR_AXIS":"6842.968","PERIOD":"93.891","APOGEE":"472.884","PERIGEE":"456.781","DECAYED":"0"},{"COMMENT":"GENERATED VIA SPACETRACK.ORG API","ORIGINATOR":"18 SPCS","NORAD_CAT_ID":"45120","OBJECT_NAME":"VPM","OBJECT_TYPE":"PAYLOAD","CLASSIFICATION_TYPE":"U","INTLDES":"19071K","EPOCH":"2020-04-22 20:44:58","EPOCH_MICROSECONDS":"49664","MEAN_MOTION":"15.33686764","ECCENTRICITY":"0.001177","INCLINATION":"51.6417","RA_OF_ASC_NODE":"271.7875","ARG_OF_PERICENTER":"209.5167","MEAN_ANOMALY":"150.5152","EPHEMERIS_TYPE":"0","ELEMENT_SET_NO":"999","REV_AT_EPOCH":"1248","BSTAR":"0.00013479","MEAN_MOTION_DOT":"0.00004088","MEAN_MOTION_DDOT":"0","FILE":"2737866","TLE_LINE0":"0 VPM","TLE_LINE1":"1 45120U 19071K   20113.86456076 +.00004088 +00000-0 +13479-3 0  9996","TLE_LINE2":"2 45120 051.6417 271.7875 0011770 209.5167 150.5152 15.33686764012484","OBJECT_ID":"2019-071K","OBJECT_NUMBER":"45120","SEMIMAJOR_AXIS":"6842.960","PERIOD":"93.891","APOGEE":"472.880","PERIGEE":"456.771","DECAYED":"0"}]